XRISM                   
1 57800U 23137A   23360.55492781  .00006803  00000+0  54079-3 0  9995
2 57800  31.0053  35.9173 0010008 287.4970  72.4571 14.99044947 16596
